{"type": "FeatureCollection", "features": [ {"type": "Feature", "properties": {"norad_id": 35441, "name": "COSMOS 2251 DEB", "group": "cosmos-2251-debris", "lat": 72.57925730306529, "lon": 15.180124006916401, "alt_km": 693.6646963726062, "timestamp": "2025-12-06T09:34:17.310221+00:00", "meta": {"OBJECT_NAME": "COSMOS 2251 DEB", "OBJECT_ID": "1993-036AKK", "EPOCH": "2025-12-05T21:41:58.300800", "MEAN_MOTION": 14.62415875, "ECCENTRICITY": 0.00373885, "INCLINATION": 74.1348, "RA_OF_ASC_NODE": 311.1176, "ARG_OF_PERICENTER": 210.3281, "MEAN_ANOMALY": 149.5724, "EPHEMERIS_TYPE": 0, "CLASSIFICATION_TYPE": "U", "NORAD_CAT_ID": 35441, "ELEMENT_SET_NO": 999, "REV_AT_EPOCH": 87330, "BSTAR": 0.0027336365, "MEAN_MOTION_DOT": 0.00013971, "MEAN_MOTION_DDOT": 0}, "tle": {"line1": "1 35441U 93036AKK 25339.90414700  .00013971  00000+0  27336-2 0  9998", "line2": "2 35441  74.1348 311.1176 0037388 210.3281 149.5724 14.62415875873308"}}, "geometry": {"type": "Point", "coordinates": [15.180124006916401, 72.57925730306529]}}, {"type": "Feature", "properties": {"norad_id": 35442, "name": "COSMOS 2251 DEB", "group": "cosmos-2251-debris", "lat": -9.522622336203701, "lon": -65.5277445145444, "alt_km": 619.5174049260468, "timestamp": "2025-12-06T09:34:17.310231+00:00", "meta": {"OBJECT_NAME": "COSMOS 2251 DEB", "OBJECT_ID": "1993-036AKL", "EPOCH": "2025-12-05T14:55:20.391456", "MEAN_MOTION": 14.83975114, "ECCENTRICITY": 0.00042632, "INCLINATION": 74.0265, "RA_OF_ASC_NODE": 113.2586, "ARG_OF_PERICENTER": 118.7806, "MEAN_ANOMALY": 241.3801, "EPHEMERIS_TYPE": 0, "CLASSIFICATION_TYPE": "U", "NORAD_CAT_ID": 35442, "ELEMENT_SET_NO": 999, "REV_AT_EPOCH": 87247, "BSTAR": 0.005361639, "MEAN_MOTION_DOT": 0.00044889, "MEAN_MOTION_DDOT": 0}, "tle": {"line1": "1 35442U 93036AKL 25339.62176379  .00044889  00000+0  53616-2 0  9997", "line2": "2 35442  74.0265 113.2586 0004263 118.7806 241.3801 14.83975114872476"}}, "geometry": {"type": "Point", "coordinates": [-65.5277445145444, -9.522622336203701]}}, {"type": "Feature", "properties": {"norad_id": 35443, "name": "COSMOS 2251 DEB", "group": "cosmos-2251-debris", "lat": -50.55128468212401, "lon": -35.976686036882825, "alt_km": 637.6989676804433, "timestamp": "2025-12-06T09:34:17.310241+00:00", "meta": {"OBJECT_NAME": "COSMOS 2251 DEB", "OBJECT_ID": "1993-036AKM", "EPOCH": "2025-12-03T11:10:41.919744", "MEAN_MOTION": 14.95510344, "ECCENTRICITY": 0.0073868, "INCLINATION": 73.9866, "RA_OF_ASC_NODE": 350.3879, "ARG_OF_PERICENTER": 135.256, "MEAN_ANOMALY": 225.4616, "EPHEMERIS_TYPE": 0, "CLASSIFICATION_TYPE": "U", "NORAD_CAT_ID": 35443, "ELEMENT_SET_NO": 999, "REV_AT_EPOCH": 86739, "BSTAR": 0.0041144703, "MEAN_MOTION_DOT": 0.00048434, "MEAN_MOTION_DDOT": 0}, "tle": {"line1": "1 35443U 93036AKM 25337.46576296  .00048434  00000+0  41145-2 0  9994", "line2": "2 35443  73.9866 350.3879 0073868 135.2560 225.4616 14.95510344867394"}}, "geometry": {"type": "Point", "coordinates": [-35.976686036882825, -50.55128468212401]}}, {"type": "Feature", "properties": {"norad_id": 35445, "name": "COSMOS 2251 DEB", "group": "cosmos-2251-debris", "lat": 62.16159445787804, "lon": 99.2700568094719, "alt_km": 658.2049332328552, "timestamp": "2025-12-06T09:34:17.310252+00:00", "meta": {"OBJECT_NAME": "COSMOS 2251 DEB", "OBJECT_ID": "1993-036AKP", "EPOCH": "2025-12-05T08:22:53.408064", "MEAN_MOTION": 14.58905892, "ECCENTRICITY": 0.01436097, "INCLINATION": 74.0367, "RA_OF_ASC_NODE": 314.0908, "ARG_OF_PERICENTER": 42.8962, "MEAN_ANOMALY": 318.3297, "EPHEMERIS_TYPE": 0, "CLASSIFICATION_TYPE": "U", "NORAD_CAT_ID": 35445, "ELEMENT_SET_NO": 999, "REV_AT_EPOCH": 87221, "BSTAR": 0.003276096, "MEAN_MOTION_DOT": 0.00017735, "MEAN_MOTION_DDOT": 0}, "tle": {"line1": "1 35445U 93036AKP 25339.34922926  .00017735  00000+0  32761-2 0  9994", "line2": "2 35445  74.0367 314.0908 0143609  42.8962 318.3297 14.58905892872213"}}, "geometry": {"type": "Point", "coordinates": [99.2700568094719, 62.16159445787804]}}, {"type": "Feature", "properties": {"norad_id": 35446, "name": "COSMOS 2251 DEB", "group": "cosmos-2251-debris", "lat": -63.736667184231905, "lon": -174.39754781744784, "alt_km": 766.5045219340782, "timestamp": "2025-12-06T09:34:17.310263+00:00", "meta": {"OBJECT_NAME": "COSMOS 2251 DEB", "OBJECT_ID": "1993-036AKQ", "EPOCH": "2025-12-05T17:34:52.262112", "MEAN_MOTION": 14.54618421, "ECCENTRICITY": 0.00744002, "INCLINATION": 74.0466, "RA_OF_ASC_NODE": 331.4309, "ARG_OF_PERICENTER": 91.6694, "MEAN_ANOMALY": 269.2992, "EPHEMERIS_TYPE": 0, "CLASSIFICATION_TYPE": "U", "NORAD_CAT_ID": 35446, "ELEMENT_SET_NO": 999, "REV_AT_EPOCH": 87906, "BSTAR": 0.00018901942, "MEAN_MOTION_DOT": 8.08e-06, "MEAN_MOTION_DDOT": 0}, "tle": {"line1": "1 35446U 93036AKQ 25339.73254933  .00000808  00000+0  18902-3 0  9999", "line2": "2 35446  74.0466 331.4309 0074400  91.6694 269.2992 14.54618421879069"}}, "geometry": {"type": "Point", "coordinates": [-174.39754781744784, -63.736667184231905]}}, {"type": "Feature", "properties": {"norad_id": 35448, "name": "COSMOS 2251 DEB", "group": "cosmos-2251-debris", "lat": 59.34455584115145, "lon": -107.56309026367104, "alt_km": 713.6315428946518, "timestamp": "2025-12-06T09:34:17.310273+00:00", "meta": {"OBJECT_NAME": "COSMOS 2251 DEB", "OBJECT_ID": "1993-036AKS", "EPOCH": "2025-12-05T14:52:31.418112", "MEAN_MOTION": 14.54160371, "ECCENTRICITY": 0.00112149, "INCLINATION": 73.9027, "RA_OF_ASC_NODE": 103.0785, "ARG_OF_PERICENTER": 283.351, "MEAN_ANOMALY": 76.6401, "EPHEMERIS_TYPE": 0, "CLASSIFICATION_TYPE": "U", "NORAD_CAT_ID": 35448, "ELEMENT_SET_NO": 999, "REV_AT_EPOCH": 87231, "BSTAR": 0.0022626974, "MEAN_MOTION_DOT": 9.564e-05, "MEAN_MOTION_DDOT": 0}, "tle": {"line1": "1 35448U 93036AKS 25339.61980808  .00009564  00000+0  22627-2 0  9991", "line2": "2 35448  73.9027 103.0785 0011214 283.3510  76.6401 14.54160371872316"}}, "geometry": {"type": "Point", "coordinates": [-107.56309026367104, 59.34455584115145]}}, {"type": "Feature", "properties": {"norad_id": 35451, "name": "COSMOS 2251 DEB", "group": "cosmos-2251-debris", "lat": 73.70527503292423, "lon": -144.0866298604084, "alt_km": 454.4391987627396, "timestamp": "2025-12-06T09:34:17.310283+00:00", "meta": {"OBJECT_NAME": "COSMOS 2251 DEB", "OBJECT_ID": "1993-036AKV", "EPOCH": "2025-12-02T09:42:30.995424", "MEAN_MOTION": 15.34019463, "ECCENTRICITY": 0.00397741, "INCLINATION": 73.9303, "RA_OF_ASC_NODE": 124.9673, "ARG_OF_PERICENTER": 13.4643, "MEAN_ANOMALY": 346.7612, "EPHEMERIS_TYPE": 0, "CLASSIFICATION_TYPE": "U", "NORAD_CAT_ID": 35451, "ELEMENT_SET_NO": 999, "REV_AT_EPOCH": 67247, "BSTAR": 0.0016761251, "MEAN_MOTION_DOT": 0.00056987, "MEAN_MOTION_DDOT": 0}, "tle": {"line1": "1 35451U 93036AKV 25336.40452541  .00056987  00000+0  16761-2 0  9990", "line2": "2 35451  73.9303 124.9673 0039774  13.4643 346.7612 15.34019463672479"}}, "geometry": {"type": "Point", "coordinates": [-144.0866298604084, 73.70527503292423]}}, {"type": "Feature", "properties": {"norad_id": 35453, "name": "COSMOS 2251 DEB", "group": "cosmos-2251-debris", "lat": -0.6178966377878103, "lon": -147.7479636578615, "alt_km": 720.6673130467916, "timestamp": "2025-12-06T09:34:17.310294+00:00", "meta": {"OBJECT_NAME": "COSMOS 2251 DEB", "OBJECT_ID": "1993-036AKX", "EPOCH": "2025-12-02T12:53:58.122528", "MEAN_MOTION": 14.3790654, "ECCENTRICITY": 0.00680216, "INCLINATION": 74.0102, "RA_OF_ASC_NODE": 39.1945, "ARG_OF_PERICENTER": 175.6131, "MEAN_ANOMALY": 184.5634, "EPHEMERIS_TYPE": 0, "CLASSIFICATION_TYPE": "U", "NORAD_CAT_ID": 35453, "ELEMENT_SET_NO": 999, "REV_AT_EPOCH": 86072, "BSTAR": 0.00098540606, "MEAN_MOTION_DOT": 3.03e-05, "MEAN_MOTION_DDOT": 0}, "tle": {"line1": "1 35453U 93036AKX 25336.53747827  .00003030  00000+0  98541-3 0  9998", "line2": "2 35453  74.0102  39.1945 0068021 175.6131 184.5634 14.37906540860721"}}, "geometry": {"type": "Point", "coordinates": [-147.7479636578615, -0.6178966377878103]}}, {"type": "Feature", "properties": {"norad_id": 35455, "name": "COSMOS 2251 DEB", "group": "cosmos-2251-debris", "lat": 42.86166931799161, "lon": 111.2934550590978, "alt_km": 714.9272841398233, "timestamp": "2025-12-06T09:34:17.310304+00:00", "meta": {"OBJECT_NAME": "COSMOS 2251 DEB", "OBJECT_ID": "1993-036AKZ", "EPOCH": "2025-12-05T08:06:37.888128", "MEAN_MOTION": 14.49263122, "ECCENTRICITY": 0.0098804, "INCLINATION": 74.0283, "RA_OF_ASC_NODE": 308.6971, "ARG_OF_PERICENTER": 54.0721, "MEAN_ANOMALY": 306.9556, "EPHEMERIS_TYPE": 0, "CLASSIFICATION_TYPE": "U", "NORAD_CAT_ID": 35455, "ELEMENT_SET_NO": 999, "REV_AT_EPOCH": 86436, "BSTAR": 0.0027436802, "MEAN_MOTION_DOT": 0.00011124, "MEAN_MOTION_DDOT": 0}, "tle": {"line1": "1 35455U 93036AKZ 25339.33793852  .00011124  00000+0  27437-2 0  9998", "line2": "2 35455  74.0283 308.6971 0098804  54.0721 306.9556 14.49263122864365"}}, "geometry": {"type": "Point", "coordinates": [111.2934550590978, 42.86166931799161]}}, {"type": "Feature", "properties": {"norad_id": 35456, "name": "COSMOS 2251 DEB", "group": "cosmos-2251-debris", "lat": 37.674016466817164, "lon": 142.66548852595054, "alt_km": 636.1860662698782, "timestamp": "2025-12-06T09:34:17.310314+00:00", "meta": {"OBJECT_NAME": "COSMOS 2251 DEB", "OBJECT_ID": "1993-036ALA", "EPOCH": "2025-12-04T18:10:25.054752", "MEAN_MOTION": 14.69179998, "ECCENTRICITY": 0.00651966, "INCLINATION": 73.9491, "RA_OF_ASC_NODE": 133.0155, "ARG_OF_PERICENTER": 344.6308, "MEAN_ANOMALY": 15.288, "EPHEMERIS_TYPE": 0, "CLASSIFICATION_TYPE": "U", "NORAD_CAT_ID": 35456, "ELEMENT_SET_NO": 999, "REV_AT_EPOCH": 65758, "BSTAR": 0.003747315, "MEAN_MOTION_DOT": 0.00022831, "MEAN_MOTION_DDOT": 0}, "tle": {"line1": "1 35456U 93036ALA 25338.75723443  .00022831  00000+0  37473-2 0  9991", "line2": "2 35456  73.9491 133.0155 0065196 344.6308  15.2880 14.69179998657589"}}, "geometry": {"type": "Point", "coordinates": [142.66548852595054, 37.674016466817164]}}]}